SIRION PATHFINDER-2     
1 43759U 18099B   26160.71589092  .00003889  00000+0  21476-3 0  9991
2 43759  97.4257 209.9509 0007741 335.4355  24.6507 15.14483601411491
CORVUS BC4              
1 43767U 18099K   26160.64618000  .00003796  00000+0  22188-3 0  9992
2 43767  97.4073 203.8475 0009077  37.9875 322.1994 15.12435826411261
M2 PATHFINDER           
1 45727U 20037E   26160.46567137  .00002333  00000+0  17036-3 0  9991
2 45727  97.8161 351.6108 0011757 171.8469 188.2950 15.04644400324336
NETSAT-4                
1 46504U 20068U   26160.73540257  .00017409  00000+0  38852-3 0  9992
2 46504  97.8610 168.3784 0004805   9.2226 350.9108 15.43618318314629
NETSAT-3                
1 46505U 20068V   26160.73592714  .00017789  00000+0  41310-3 0  9992
2 46505  97.8660 166.6049 0005250  27.7439 332.4086 15.42421489314536
NETSAT-1                
1 46506U 20068W   26160.50619311  .00011604  00000+0  34998-3 0  9995
2 46506  97.8747 160.7785 0005918  54.1491 306.0300 15.34460416314123
NETSAT-2                
1 46507U 20068X   26160.52662170  .00020305  00000+0  42234-3 0  9999
2 46507  97.8624 168.0200 0004476  47.3203 312.8421 15.45668742314554
GREENCUBE (IO-117)      
1 53109U 22080E   26152.46502029 -.00000003  00000+0  00000+0 0  9996
2 53109  70.1435 303.7143 0008869 293.3663  66.6064  6.42583280 91055
SITRO-AIS 5 (KATYS)     
1 57176U 23091L   26160.80744336  .00011868  00000+0  41927-3 0  9990
2 57176  97.5065 224.6374 0012725 126.2769 233.9648 15.29285439163214
SITRO-AIS 6 (CHIRKIN)   
1 57192U 23091AC  26160.83501717  .00009473  00000+0  37260-3 0  9999
2 57192  97.5073 223.8232 0013019 129.1738 231.0659 15.25794520163167
SITRO-AIS 8 (ANOKHIN)   
1 57193U 23091AD  26160.83729467  .00013788  00000+0  44850-3 0  9991
2 57193  97.5061 226.2265 0011870 122.4983 237.7407 15.31932941163329
SITRO-AIS 7 (FARTUSHNIY)
1 57194U 23091AE  26160.83666960  .00009136  00000+0  36284-3 0  9994
2 57194  97.5070 223.6535 0012830 129.9832 230.2535 15.25484633163157
SITRO-AIS 10 (BURDAEV)  
1 57199U 23091AK  26160.83453701  .00019166  00000+0  50835-3 0  9998
2 57199  97.5085 231.2024 0007879 101.9604 258.2525 15.38330314163632
SITRO-AIS 9 (SHCHUKIN)  
1 57201U 23091AM  26160.79355242  .00018628  00000+0  50190-3 0  9994
2 57201  97.5082 230.8963 0008121 102.1054 258.1101 15.37849068163610
SITRO-AIS 12 (SMIRENNIY)
1 57204U 23091AQ  26160.85062429  .00018446  00000+0  49242-3 0  9990
2 57204  97.5095 231.4172 0007711  97.1177 263.0945 15.38141301163649
SITRO-AIS 11 (SHEFFER)  
1 57208U 23091AU  26160.80101842  .00019709  00000+0  51885-3 0  9991
2 57208  97.5093 231.6082 0007610  97.0646 263.1464 15.38558550163657
SITRO-AIS 25            
1 59066U 24039R   26160.93923919  .00002981  00000+0  23359-3 0  9998
2 59066  95.3913 230.1118 0144385 354.2895   5.6677 14.93475738123643
SITRO-AIS 26            
1 59067U 24039S   26160.93962480  .00002987  00000+0  23511-3 0  9991
2 59067  95.3913 230.0113 0144731 354.8629   5.1102 14.93272881123635
SITRO-AIS 27            
1 59068U 24039T   26160.97888810  .00002769  00000+0  21623-3 0  9990
2 59068  95.3913 230.3067 0143796 353.3022   6.6278 14.93689804123668
SITRO-AIS 28            
1 59071U 24039U   26160.95649219  .00002483  00000+0  19407-3 0  9990
2 59071  95.3918 230.3380 0143665 353.2798   6.6497 14.93725487123660
GRBBETA                 
1 60237U 24128C   26160.72031736  .00003403  00000+0  23884-3 0  9996
2 60237  61.9897 242.4628 0041671 133.0462 227.4133 15.06590161105143
OOV-CUBE (TUBSAT-30)    
1 60240U 24128F   26160.60303325  .00002162  00000+0  17320-3 0  9992
2 60240  61.9950 252.0179 0045573 132.0593 228.4390 15.02742005104972
ROBUSTA-3A (MEDITERRAN*)
1 60243U 24128J   26160.79233313  .00006545  00000+0  38842-3 0  9995
2 60243  61.9859 234.3925 0042154 126.5620 233.9367 15.11589492105308
LASARSAT                
1 62391U 24247Q   26160.80476977  .00035312  00000+0  71316-3 0  9997
2 62391  44.9750 303.6854 0008390 290.3514  69.6474 15.45910909 82172
CROCUBE                 
1 62394U 24247T   26160.74694193  .00038274  00000+0  72510-3 0  9992
2 62394  44.9723 301.4632 0008211 293.9391  66.0639 15.47729938 82197
FORESAIL-1 PRIME        
1 66778U 25276DS  26160.68286364  .00004811  00000+0  23556-3 0  9991
2 66778  97.4201 234.0915 0003769 118.9224 241.2388 15.18633729 29267
KNACKSAT-2              
1 67683U 98067XZ  26160.72570919  .00046495  00000+0  58122-3 0  9993
2 67683  51.6308 331.9912 0010076 182.3472 177.7476 15.59295239 19115
