OBJECT_NAME,OBJECT_ID,EPOCH,MEAN_MOTION,ECCENTRICITY,INCLINATION,RA_OF_ASC_NODE,ARG_OF_PERICENTER,MEAN_ANOMALY,EPHEMERIS_TYPE,CLASSIFICATION_TYPE,NORAD_CAT_ID,ELEMENT_SET_NO,REV_AT_EPOCH,BSTAR,MEAN_MOTION_DOT,MEAN_MOTION_DDOT
SIRION PATHFINDER-2,2018-099B,2026-06-09T17:10:52.975488,15.14483601,.00077417,97.4257,209.9509,335.4355,24.6507,0,U,43759,999,41149,.21476373E-3,.3889E-4,0
CORVUS BC4,2018-099K,2026-06-09T15:30:29.952000,15.12435826,.00090771,97.4073,203.8475,37.9875,322.1994,0,U,43767,999,41126,.22188113E-3,.3796E-4,0
M2 PATHFINDER,2020-037E,2026-06-09T11:10:34.006368,15.04644400,.00117577,97.8161,351.6108,171.8469,188.2950,0,U,45727,999,32433,.17035879E-3,.2333E-4,0
NETSAT-4,2020-068U,2026-06-09T17:38:58.782048,15.43618318,.00048053,97.8610,168.3784,9.2226,350.9108,0,U,46504,999,31462,.38852042E-3,.17409E-3,0
NETSAT-3,2020-068V,2026-06-09T17:39:44.104896,15.42421489,.00052509,97.8660,166.6049,27.7439,332.4086,0,U,46505,999,31453,.41309634E-3,.17789E-3,0
NETSAT-1,2020-068W,2026-06-09T12:08:55.084704,15.34460416,.00059187,97.8747,160.7785,54.1491,306.0300,0,U,46506,999,31412,.34997718E-3,.11604E-3,0
NETSAT-2,2020-068X,2026-06-09T12:38:20.114880,15.45668742,.00044766,97.8624,168.0200,47.3203,312.8421,0,U,46507,999,31455,.42234354E-3,.20305E-3,0
GREENCUBE (IO-117),2022-080E,2026-06-01T11:09:37.753056,6.42583280,.00088692,70.1435,303.7143,293.3663,66.6064,0,U,53109,999,9105,0,-.3E-7,0
SITRO-AIS 5 (KATYS),2023-091L,2026-06-09T19:22:43.106304,15.29285439,.00127258,97.5065,224.6374,126.2769,233.9648,0,U,57176,999,16321,.41927159E-3,.11868E-3,0
SITRO-AIS 6 (CHIRKIN),2023-091AC,2026-06-09T20:02:25.483488,15.25794520,.00130197,97.5073,223.8232,129.1738,231.0659,0,U,57192,999,16316,.37260047E-3,.9473E-4,0
SITRO-AIS 8 (ANOKHIN),2023-091AD,2026-06-09T20:05:42.259488,15.31932941,.00118703,97.5061,226.2265,122.4983,237.7407,0,U,57193,999,16332,.44850272E-3,.13788E-3,0
SITRO-AIS 7 (FARTUSHNIY),2023-091AE,2026-06-09T20:04:48.253440,15.25484633,.00128304,97.5070,223.6535,129.9832,230.2535,0,U,57194,999,16315,.36284335E-3,.9136E-4,0
SITRO-AIS 10 (BURDAEV),2023-091AK,2026-06-09T20:01:43.997664,15.38330314,.00078792,97.5085,231.2024,101.9604,258.2525,0,U,57199,999,16363,.50834864E-3,.19166E-3,0
SITRO-AIS 9 (SHCHUKIN),2023-091AM,2026-06-09T19:02:42.929088,15.37849068,.00081218,97.5082,230.8963,102.1054,258.1101,0,U,57201,999,16361,.50189929E-3,.18628E-3,0
SITRO-AIS 12 (SMIRENNIY),2023-091AQ,2026-06-09T20:24:53.938656,15.38141301,.00077119,97.5095,231.4172,97.1177,263.0945,0,U,57204,999,16364,.49241518E-3,.18446E-3,0
SITRO-AIS 11 (SHEFFER),2023-091AU,2026-06-09T19:13:27.991488,15.38558550,.00076106,97.5093,231.6082,97.0646,263.1464,0,U,57208,999,16365,.51884634E-3,.19709E-3,0
SITRO-AIS 25,2024-039R,2026-06-09T22:32:30.266016,14.93475738,.01443856,95.3913,230.1118,354.2895,5.6677,0,U,59066,999,12364,.23359016E-3,.2981E-4,0
SITRO-AIS 26,2024-039S,2026-06-09T22:33:03.582720,14.93272881,.01447314,95.3913,230.0113,354.8629,5.1102,0,U,59067,999,12363,.23510731E-3,.2987E-4,0
SITRO-AIS 27,2024-039T,2026-06-09T23:29:35.931840,14.93689804,.01437963,95.3913,230.3067,353.3022,6.6278,0,U,59068,999,12366,.21622721E-3,.2769E-4,0
SITRO-AIS 28,2024-039U,2026-06-09T22:57:20.925216,14.93725487,.01436654,95.3918,230.3380,353.2798,6.6497,0,U,59071,999,12366,.19407175E-3,.2483E-4,0
GRBBETA,2024-128C,2026-06-09T17:17:15.419904,15.06590161,.00416715,61.9897,242.4628,133.0462,227.4133,0,U,60237,999,10514,.23884139E-3,.3403E-4,0
OOV-CUBE (TUBSAT-30),2024-128F,2026-06-09T14:28:22.072800,15.02742005,.00455733,61.9950,252.0179,132.0593,228.4390,0,U,60240,999,10497,.17320396E-3,.2162E-4,0
ROBUSTA-3A (MEDITERRANEE),2024-128J,2026-06-09T19:00:57.582432,15.11589492,.00421541,61.9859,234.3925,126.5620,233.9367,0,U,60243,999,10530,.3884156E-3,.6545E-4,0
LASARSAT,2024-247Q,2026-06-09T19:18:52.108128,15.45910909,.00083909,44.9750,303.6854,290.3514,69.6474,0,U,62391,999,8217,.71315883E-3,.35312E-3,0
CROCUBE,2024-247T,2026-06-09T17:55:35.782752,15.47729938,.00082118,44.9723,301.4632,293.9391,66.0639,0,U,62394,999,8219,.72510206E-3,.38274E-3,0
FORESAIL-1 PRIME,2025-276DS,2026-06-09T16:23:19.418496,15.18633729,.00037695,97.4201,234.0915,118.9224,241.2388,0,U,66778,999,2926,.23556383E-3,.4811E-4,0
KNACKSAT-2,1998-067XZ,2026-06-09T17:25:01.274016,15.59295239,.00100765,51.6308,331.9912,182.3472,177.7476,0,U,67683,999,1911,.58121556E-3,.46495E-3,0
